NORAD_CAT_ID,OBJECT_NAME,OBJECT_TYPE,EPOCH,MEAN_MOTION,ECCENTRICITY,INCLINATION,RA_OF_ASC_NODE,ARG_OF_PERICENTER,MEAN_ANOMALY,BSTAR,MEAN_MOTION_DOT,MEAN_MOTION_DDOT,TLE_LINE0,TLE_LINE1,TLE_LINE2,SEMIMAJOR_AXIS,PERIOD,APOGEE,PERIGEE,DECAYED
53425.0,STARLINK-4531,PAYLOAD,2022-10-21 22:00:00,15.08841982,0.0001546,53.2184,257.2163,52.3984,103.6999,0.0013375,0.00021064,0.0,0 STARLINK-4531,1 53425U 22097AP  22294.91667824  .00021064  00000-0  13375-2 0  9995,2 53425  53.2184 257.2163 0001546  52.3984 103.6999 15.08841982  1304,6917.874,95.437,540.809,538.67,0.0
53425.0,STARLINK-4531,PAYLOAD,2022-10-22 14:00:01,15.08864853,0.0001715,53.2183,254.2241,49.0236,130.29,-0.0027293,-0.00043493,0.0,0 STARLINK-4531,1 53425U 22097AP  22295.58334491 -.00043493  00000-0 -27293-2 0  9996,2 53425  53.2183 254.2241 0001715  49.0236 130.2900 15.08864853  1308,6917.804,95.436,540.856,538.4830000000002,0.0
53425.0,STARLINK-4531,PAYLOAD,2022-10-22 22:00:00,15.08852433,0.000174,53.2186,252.7272,55.583,135.3348,0.0012904,0.00020315,0.0,0 STARLINK-4531,1 53425U 22097AP  22295.91667824  .00020315  00000-0  12904-2 0  9991,2 53425  53.2186 252.7272 0001740  55.5830 135.3348 15.08852433  1301,6917.842,95.437,540.911,538.504,0.0
53425.0,STARLINK-4531,PAYLOAD,2022-10-23 00:00:02,15.08867093,0.0001764,53.2186,252.3535,53.8929,229.9877,-0.00042165,-6.998e-05,0.0,0 STARLINK-4531,1 53425U 22097AP  22296.00002315 -.00006998  00000-0 -42165-3 0  9996,2 53425  53.2186 252.3535 0001764  53.8929 229.9877 15.08867093 11918,6917.7980000000025,95.436,540.883,538.442,0.0
53425.0,STARLINK-4531,PAYLOAD,2022-10-23 14:00:01,15.08872718,0.0001715,53.219,249.7347,48.5727,165.5962,-0.0017986,-0.00028825,0.0,0 STARLINK-4531,1 53425U 22097AP  22296.58334491 -.00028825  00000-0 -17986-2 0  9997,2 53425  53.2190 249.7347 0001715  48.5727 165.5962 15.08872718  1309,6917.78,95.435,540.832,538.4590000000002,0.0
53425.0,STARLINK-4531,PAYLOAD,2022-10-23 22:00:00,15.08867394,0.0001686,53.2193,248.238,52.6853,173.09900000000005,-0.00301,-0.0004791,0.0,0 STARLINK-4531,1 53425U 22097AP  22296.91667824 -.00047910  00000-0 -30100-2 0  9992,2 53425  53.2193 248.2380 0001686  52.6853 173.0990 15.08867394  1305,6917.797,95.436,540.828,538.495,0.0
53425.0,STARLINK-4531,PAYLOAD,2022-10-24 06:00:00,15.0882145,0.0001831,53.2195,246.7433,45.6202,191.7783,-0.0018495,-0.00029588,0.0,0 STARLINK-4531,1 53425U 22097AP  22297.25001157 -.00029588  00000-0 -18495-2 0  9995,2 53425  53.2195 246.7433 0001831  45.6202 191.7783 15.08821450 12101,6917.937,95.439,541.069,538.535,0.0
53425.0,STARLINK-4531,PAYLOAD,2022-10-24 14:00:01,15.08777847,0.0001659,53.2198,245.2456,45.5076,203.4576,0.0010462,0.00016373,0.0,0 STARLINK-4531,1 53425U 22097AP  22297.58334491  .00016373  00000-0  10462-2 0  9993,2 53425  53.2198 245.2456 0001659  45.5076 203.4576 15.08777847  1300,6918.07,95.441,541.0830000000002,538.788,0.0
53425.0,STARLINK-4531,PAYLOAD,2022-10-24 22:00:00,15.08818842,0.0001684,53.22,243.7493,51.7727,208.7074,0.00032232,4.843e-05,0.0,0 STARLINK-4531,1 53425U 22097AP  22297.91667824  .00004843  00000-0  32232-3 0  9998,2 53425  53.2200 243.7493 0001684  51.7727 208.7074 15.08818842  1300,6917.945,95.439,540.975,538.645,0.0
53425.0,STARLINK-4531,PAYLOAD,2022-10-25 00:00:00,15.08828946,0.000173,53.2201,243.3757,49.5076,303.8622,-0.0010565,-0.00017058,0.0,0 STARLINK-4531,1 53425U 22097AP  22298.00001157 -.00017058  00000-0 -10565-2 0  9998,2 53425  53.2201 243.3757 0001730  49.5076 303.8622 15.08828946 12229,6917.9140000000025,95.438,540.976,538.582,0.0
53425.0,STARLINK-4531,PAYLOAD,2022-10-25 14:00:01,15.08835637,0.0001718,53.2203,240.757,49.0216,234.6051,-0.00010768,-2.001e-05,0.0,0 STARLINK-4531,1 53425U 22097AP  22298.58334491 -.00002001  00000-0 -10768-3 0  9999,2 53425  53.2203 240.7570 0001718  49.0216 234.6051 15.08835637 12303,6917.894,95.438,540.947,538.57,0.0
53425.0,STARLINK-4531,PAYLOAD,2022-10-25 22:00:01,15.08851318,0.0001713,53.2205,239.2607,52.7229,242.5477,-0.00027015,-4.586e-05,0.0,0 STARLINK-4531,1 53425U 22097AP  22298.91668981 -.00004586  00000-0 -27015-3 0  9993,2 53425  53.2205 239.2607 0001713  52.7229 242.5477 15.08851318  1301,6917.846,95.437,540.896,538.526,0.0
53425.0,STARLINK-4531,PAYLOAD,2022-10-26 14:00:01,15.08847977,0.0001653,53.2203,236.2683,49.6936,268.7339,-0.0015129,-0.0002429,0.0,0 STARLINK-4531,1 53425U 22097AP  22299.58334491 -.00024290  00000-0 -15129-2 0  9999,2 53425  53.2203 236.2683 0001653  49.6936 268.7339 15.08847977 12465,6917.856,95.437,540.865,538.577,0.0
53425.0,STARLINK-4531,PAYLOAD,2022-10-26 22:00:00,15.0884702,0.0001631999999999,53.2204,234.7723,51.4236,278.5832,-0.00076164,-0.00012391,0.0,0 STARLINK-4531,1 53425U 22097AP  22299.91667824 -.00012391  00000-0 -76164-3 0  9991,2 53425  53.2204 234.7723 0001632  51.4236 278.5832 15.08847020  1302,6917.859,95.437,540.8530000000002,538.595,0.0
53425.0,STARLINK-4531,PAYLOAD,2022-10-27 08:00:01,15.08846919,0.0001834,53.2198,232.9033,45.0949,29.4093,-0.0010812,-0.00017458,0.0,0 STARLINK-4531,1 53425U 22097AP  22300.33334491 -.00017458  00000-0 -10812-2 0  9997,2 53425  53.2198 232.9033 0001834  45.0949  29.4093 15.08846919 12571,6917.859,95.437,540.993,538.456,0.0
53425.0,STARLINK-4531,PAYLOAD,2022-10-27 14:00:01,15.08821656,0.0001747,53.2199,231.7798,52.5571,300.7146,0.00033363,5.023e-05,0.0,0 STARLINK-4531,1 53425U 22097AP  22300.58335648  .00005023  00000-0  33363-3 0  9999,2 53425  53.2199 231.7798 0001747  52.5571 300.7146 15.08821656  1308,6917.936,95.439,541.01,538.5930000000002,0.0
53425.0,STARLINK-4531,PAYLOAD,2022-10-27 22:00:00,15.08847119,0.0001773,53.2199,230.2841,54.8879,309.89,-0.0010247,-0.00016562,0.0,0 STARLINK-4531,1 53425U 22097AP  22300.91667824 -.00016562  00000-0 -10247-2 0  9997,2 53425  53.2199 230.2841 0001773  54.8879 309.8900 15.08847119  1306,6917.859,95.437,540.95,538.497,0.0
53425.0,STARLINK-4531,PAYLOAD,2022-10-28 08:00:01,15.0884864,0.0001899999999999,53.2191,228.4148,49.0836,60.2652,0.0019708,0.00031224,0.0,0 STARLINK-4531,1 53425U 22097AP  22301.33335648  .00031224  00000-0  19708-2 0  9991,2 53425  53.2191 228.4148 0001900  49.0836  60.2652 15.08848640 12728,6917.854,95.437,541.033,538.405,0.0
53425.0,STARLINK-4531,PAYLOAD,2022-10-28 14:00:01,15.08851045,0.000176,53.2192,227.2912,54.9576,333.1075,0.0019962,0.00031634,0.0,0 STARLINK-4531,1 53425U 22097AP  22301.58335648  .00031634  00000-0  19962-2 0  9995,2 53425  53.2192 227.2912 0001760  54.9576 333.1075 15.08851045  1301,6917.847,95.437,540.929,538.494,0.0
53425.0,STARLINK-4531,PAYLOAD,2022-10-28 22:00:01,15.08908868,0.0001751999999999,53.2191,225.7956,54.5393,345.14,-0.0046592,-0.00073819,0.0,0 STARLINK-4531,1 53425U 22097AP  22301.91668981 -.00073819  00000-0 -46592-2 0  9993,2 53425  53.2191 225.7956 0001752  54.5393 345.1400 15.08908868  1306,6917.67,95.433,540.747,538.323,0.0
53425.0,STARLINK-4531,PAYLOAD,2022-10-29 08:00:01,15.08849495,0.0001717,53.2184,223.926,45.1203,99.0454,-0.0025215999999999,-0.00040206,0.0,0 STARLINK-4531,1 53425U 22097AP  22302.33334491 -.00040206  00000-0 -25216-2 0  9990,2 53425  53.2184 223.9260 0001717  45.1203  99.0454 15.08849495 12871,6917.851,95.437,540.904,538.529,0.0
53425.0,STARLINK-4531,PAYLOAD,2022-10-29 12:00:00,15.08827935,0.000159,53.2186,223.1773,48.037,281.9305,-0.001198,-0.00019297,0.0,0 STARLINK-4531,1 53425U 22097AP  22302.50001157 -.00019297  00000-0 -11980-2 0  9998,2 53425  53.2186 223.1773 0001590  48.0370 281.9305 15.08827935  1308,6917.917,95.438,540.882,538.682,0.0
53425.0,STARLINK-4531,PAYLOAD,2022-10-29 22:00:01,15.08856741,0.0001703,53.2185,221.3068,51.0368,23.4989,-0.0029929,-0.00047627,0.0,0 STARLINK-4531,1 53425U 22097AP  22302.91668981 -.00047627  00000-0 -29929-2 0  9997,2 53425  53.2185 221.3068 0001703  51.0368  23.4989 15.08856741  1305,6917.829000000002,95.436,540.872,538.516,0.0
53425.0,STARLINK-4531,PAYLOAD,2022-10-30 00:00:00,15.08833863,0.0001771,53.2183,220.9334,49.3926,117.9871,-0.00084533,-0.00013714,0.0,0 STARLINK-4531,1 53425U 22097AP  22303.00001157 -.00013714  00000-0 -84533-3 0  9997,2 53425  53.2183 220.9334 0001771  49.3926 117.9871 15.08833863 12973,6917.899,95.438,540.989,538.539,0.0
53425.0,STARLINK-4531,PAYLOAD,2022-10-30 14:00:01,15.08807693,0.0001668,53.2184,218.3136,49.869,47.7797,0.0018732,0.00029623,0.0,0 STARLINK-4531,1 53425U 22097AP  22303.58334491  .00029623  00000-0  18732-2 0  9991,2 53425  53.2184 218.3136 0001668  49.8690  47.7797 15.08807693  1307,6917.979,95.44,540.998,538.69,0.0
53425.0,STARLINK-4531,PAYLOAD,2022-10-30 22:00:01,15.08831227,0.000184,53.2184,216.818,51.9375,57.3416,-0.0011255,-0.00018152,0.0,0 STARLINK-4531,1 53425U 22097AP  22303.91668981 -.00018152  00000-0 -11255-2 0  9992,2 53425  53.2184 216.8180 0001840  51.9375  57.3416 15.08831227  1300,6917.906999999997,95.438,541.045,538.499,0.0
53425.0,STARLINK-4531,PAYLOAD,2022-10-31 14:00:01,15.087975899999998,0.0001744,53.2186,213.8247,50.5622,81.8149,0.0030959,0.00049271,0.0,0 STARLINK-4531,1 53425U 22097AP  22304.58334491  .00049271  00000-0  30959-2 0  9998,2 53425  53.2186 213.8247 0001744  50.5622  81.8149 15.08797590  1305,6918.01,95.44,541.082,538.669,0.0
53425.0,STARLINK-4531,PAYLOAD,2022-10-31 22:00:01,15.08850792,0.0001854,53.2188,212.3292,50.4228,93.5778,-0.0012805,-0.00020616,0.0,0 STARLINK-4531,1 53425U 22097AP  22304.91668981 -.00020616  00000-0 -12805-2 0  9993,2 53425  53.2188 212.3292 0001854  50.4228  93.5778 15.08850792  1306,6917.847,95.437,540.995,538.43,0.0
53425.0,STARLINK-4531,PAYLOAD,2022-11-01 00:00:02,15.08846184,0.0001902,53.2187,211.9556,48.5748,188.3272,-0.00092852,-0.00015038,0.0,0 STARLINK-4531,1 53425U 22097AP  22305.00002315 -.00015038  00000-0 -92852-3 0  9990,2 53425  53.2187 211.9556 0001902  48.5748 188.3272 15.08846184 13273,6917.861,95.437,541.0419999999998,538.411,0.0
